start=new Date('2022-02-16T00:00:00.000Z').valueOf();
sats=[{"PERIAPSIS":"546.110","SITE":"AFETR","CLASSIFICATION_TYPE":"U","FILE":"3301463","ELEMENT_SET_NO":"999","MEAN_MOTION":"15.06393397","OBJECT_NAME":"STARLINK-1273","BSTAR":"0.00043397000000","MEAN_MOTION_DDOT":"0.0000000000000","ARG_OF_PERICENTER":"72.6202","EPOCH":"2022-02-15T20:39:32.994720","LAUNCH_DATE":"2020-03-18","MEAN_ANOMALY":"287.4964","MEAN_ELEMENT_THEORY":"SGP4","COUNTRY_CODE":"US","SEMIMAJOR_AXIS":"6925.369","INCLINATION":"53.0535","DECAY_DATE":null,"PERIOD":"95.593","ECCENTRICITY":"0.00016230","MEAN_MOTION_DOT":"0.00006187","EPHEMERIS_TYPE":"0","REF_FRAME":"TEME","TIME_SYSTEM":"UTC","OBJECT_TYPE":"PAYLOAD","GP_ID":"196056329","APOAPSIS":"548.358","CENTER_NAME":"EARTH","OBJECT_ID":"2020-019H","REV_AT_EPOCH":"10623","RA_OF_ASC_NODE":"343.3093","TLE_LINE1":"1 45367U 20019H   22046.86079855  .00006187  00000-0  43397-3 0  9990","TLE_LINE2":"2 45367  53.0535 343.3093 0001623  72.6202 287.4964 15.06393397106232","NORAD_CAT_ID":"45367","RCS_SIZE":"LARGE"},{"EPOCH":"2022-02-15T19:57:03.907872","ARG_OF_PERICENTER":"92.5413","MEAN_MOTION_DDOT":"0.0000000000000","MEAN_ELEMENT_THEORY":"SGP4","LAUNCH_DATE":"2020-03-18","MEAN_ANOMALY":"267.5749","INCLINATION":"53.0546","COUNTRY_CODE":"US","SEMIMAJOR_AXIS":"6925.393","DECAY_DATE":null,"PERIOD":"95.593","ECCENTRICITY":"0.00015100","SITE":"AFETR","PERIAPSIS":"546.212","FILE":"3301463","CLASSIFICATION_TYPE":"U","ELEMENT_SET_NO":"999","BSTAR":"-0.00007864200000","OBJECT_NAME":"STARLINK-1276","MEAN_MOTION":"15.06385628","RA_OF_ASC_NODE":"343.4202","TLE_LINE1":"1 45368U 20019J   22046.83129523 -.00001452  00000-0 -78642-4 0  9990","NORAD_CAT_ID":"45368","TLE_LINE2":"2 45368  53.0546 343.4202 0001510  92.5413 267.5749 15.06385628106236","RCS_SIZE":"LARGE","EPHEMERIS_TYPE":"0","MEAN_MOTION_DOT":"-0.00001452","REF_FRAME":"TEME","CENTER_NAME":"EARTH","GP_ID":"196057080","APOAPSIS":"548.303","OBJECT_TYPE":"PAYLOAD","TIME_SYSTEM":"UTC","REV_AT_EPOCH":"10623","OBJECT_ID":"2020-019J"},{"MEAN_MOTION_DOT":"-0.00002430","EPHEMERIS_TYPE":"0","REF_FRAME":"TEME","OBJECT_TYPE":"PAYLOAD","TIME_SYSTEM":"UTC","GP_ID":"196000938","APOAPSIS":"548.611","CENTER_NAME":"EARTH","OBJECT_ID":"2020-019K","REV_AT_EPOCH":"10614","RA_OF_ASC_NODE":"346.1232","TLE_LINE1":"1 45369U 20019K   22046.23321116 -.00002430  00000-0 -14446-3 0  9995","TLE_LINE2":"2 45369  53.0562 346.1232 0001846  75.0728 285.0465 15.06361310106147","NORAD_CAT_ID":"45369","RCS_SIZE":"LARGE","PERIAPSIS":"546.054","SITE":"AFETR","CLASSIFICATION_TYPE":"U","FILE":"3300923","ELEMENT_SET_NO":"999","MEAN_MOTION":"15.06361310","BSTAR":"-0.00014446000000","OBJECT_NAME":"STARLINK-1277","MEAN_MOTION_DDOT":"0.0000000000000","EPOCH":"2022-02-15T05:35:49.444224","ARG_OF_PERICENTER":"75.0728","MEAN_ANOMALY":"285.0465","LAUNCH_DATE":"2020-03-18","MEAN_ELEMENT_THEORY":"SGP4","INCLINATION":"53.0562","COUNTRY_CODE":"US","SEMIMAJOR_AXIS":"6925.467","PERIOD":"95.595","DECAY_DATE":null,"ECCENTRICITY":"0.00018460"},{"DECAY_DATE":null,"ECCENTRICITY":"0.00017370","PERIOD":"95.593","COUNTRY_CODE":"US","INCLINATION":"53.0577","SEMIMAJOR_AXIS":"6925.367","MEAN_ELEMENT_THEORY":"SGP4","MEAN_ANOMALY":"291.1859","LAUNCH_DATE":"2020-03-18","EPOCH":"2022-02-15T19:41:08.599488","ARG_OF_PERICENTER":"68.9316","MEAN_MOTION_DDOT":"0.0000000000000","BSTAR":"0.00001838800000","OBJECT_NAME":"STARLINK-1281","MEAN_MOTION":"15.06393978","ELEMENT_SET_NO":"999","FILE":"3301463","CLASSIFICATION_TYPE":"U","SITE":"AFETR","PERIAPSIS":"546.029","RCS_SIZE":"LARGE","NORAD_CAT_ID":"45370","TLE_LINE2":"2 45370  53.0577 343.4764 0001737  68.9316 291.1859 15.06393978106238","TLE_LINE1":"1 45370U 20019L   22046.82023842 -.00000008  00000-0  18388-4 0  9995","RA_OF_ASC_NODE":"343.4764","REV_AT_EPOCH":"10623","OBJECT_ID":"2020-019L","GP_ID":"196056577","CENTER_NAME":"EARTH","APOAPSIS":"548.435","OBJECT_TYPE":"PAYLOAD","TIME_SYSTEM":"UTC","REF_FRAME":"TEME","EPHEMERIS_TYPE":"0","MEAN_MOTION_DOT":"-0.00000008"},{"REF_FRAME":"TEME","EPHEMERIS_TYPE":"0","MEAN_MOTION_DOT":"0.00004982","REV_AT_EPOCH":"10623","OBJECT_ID":"2020-019M","GP_ID":"196056829","CENTER_NAME":"EARTH","APOAPSIS":"548.235","TIME_SYSTEM":"UTC","OBJECT_TYPE":"PAYLOAD","NORAD_CAT_ID":"45371","TLE_LINE2":"2 45371  53.0560 343.3424 0001513  76.0340 284.0817 15.06408641106231","TLE_LINE1":"1 45371U 20019M   22046.84972045  .00004982  00000-0  35306-3 0  9998","RA_OF_ASC_NODE":"343.3424","RCS_SIZE":"LARGE","FILE":"3301463","CLASSIFICATION_TYPE":"U","SITE":"AFETR","PERIAPSIS":"546.139","OBJECT_NAME":"STARLINK-1287","BSTAR":"0.00035306000000","MEAN_MOTION":"15.06408641","ELEMENT_SET_NO":"999","MEAN_ELEMENT_THEORY":"SGP4","LAUNCH_DATE":"2020-03-18","MEAN_ANOMALY":"284.0817","ARG_OF_PERICENTER":"76.0340","EPOCH":"2022-02-15T20:23:35.846880","MEAN_MOTION_DDOT":"0.0000000000000","PERIOD":"95.592","DECAY_DATE":null,"ECCENTRICITY":"0.00015130","COUNTRY_CODE":"US","SEMIMAJOR_AXIS":"6925.322","INCLINATION":"53.0560"},{"PERIAPSIS":"545.919","SITE":"AFETR","CLASSIFICATION_TYPE":"U","FILE":"3301433","ELEMENT_SET_NO":"999","MEAN_MOTION":"15.06413016","BSTAR":"0.00026146000000","OBJECT_NAME":"STARLINK-1288","MEAN_MOTION_DDOT":"0.0000000000000","EPOCH":"2022-02-15T12:47:08.224512","ARG_OF_PERICENTER":"65.4316","LAUNCH_DATE":"2020-03-18","MEAN_ANOMALY":"294.6862","MEAN_ELEMENT_THEORY":"SGP4","SEMIMAJOR_AXIS":"6925.309","COUNTRY_CODE":"US","INCLINATION":"53.0557","PERIOD":"95.591","DECAY_DATE":null,"ECCENTRICITY":"0.00018110","MEAN_MOTION_DOT":"0.00003616","EPHEMERIS_TYPE":"0","REF_FRAME":"TEME","OBJECT_TYPE":"PAYLOAD","TIME_SYSTEM":"UTC","CENTER_NAME":"EARTH","GP_ID":"196036787","APOAPSIS":"548.428","OBJECT_ID":"2020-019N","REV_AT_EPOCH":"10618","TLE_LINE1":"1 45372U 20019N   22046.53273408  .00003616  00000-0  26146-3 0  9997","RA_OF_ASC_NODE":"344.7793","TLE_LINE2":"2 45372  53.0557 344.7793 0001811  65.4316 294.6862 15.06413016106181","NORAD_CAT_ID":"45372","RCS_SIZE":"LARGE"},{"TIME_SYSTEM":"UTC","OBJECT_TYPE":"PAYLOAD","GP_ID":"196026983","APOAPSIS":"548.298","CENTER_NAME":"EARTH","OBJECT_ID":"2020-019P","REV_AT_EPOCH":"10618","MEAN_MOTION_DOT":"0.00004256","EPHEMERIS_TYPE":"0","REF_FRAME":"TEME","RCS_SIZE":"LARGE","TLE_LINE1":"1 45373U 20019P   22046.51431490  .00004256  00000-0  30449-3 0  9995","RA_OF_ASC_NODE":"344.8499","TLE_LINE2":"2 45373  53.0549 344.8499 0001541  76.4311 283.6850 15.06394489106181","NORAD_CAT_ID":"45373","ELEMENT_SET_NO":"999","MEAN_MOTION":"15.06394489","OBJECT_NAME":"STARLINK-1295","BSTAR":"0.00030449000000","PERIAPSIS":"546.163","SITE":"AFETR","CLASSIFICATION_TYPE":"U","FILE":"3301229","SEMIMAJOR_AXIS":"6925.365","COUNTRY_CODE":"US","INCLINATION":"53.0549","ECCENTRICITY":"0.00015410","DECAY_DATE":null,"PERIOD":"95.592","MEAN_MOTION_DDOT":"0.0000000000000","ARG_OF_PERICENTER":"76.4311","EPOCH":"2022-02-15T12:20:36.807360","LAUNCH_DATE":"2020-03-18","MEAN_ANOMALY":"283.6850","MEAN_ELEMENT_THEORY":"SGP4"},{"REF_FRAME":"TEME","EPHEMERIS_TYPE":"0","MEAN_MOTION_DOT":"-0.00001212","REV_AT_EPOCH":"10621","OBJECT_ID":"2020-019Q","CENTER_NAME":"EARTH","GP_ID":"196056078","APOAPSIS":"548.134","OBJECT_TYPE":"PAYLOAD","TIME_SYSTEM":"UTC","NORAD_CAT_ID":"45374","TLE_LINE2":"2 45374  53.0557 343.9754 0001257  87.2021 272.9112 15.06383696106211","RA_OF_ASC_NODE":"343.9754","TLE_LINE1":"1 45374U 20019Q   22046.70967006 -.00001212  00000-0 -62496-4 0  9993","RCS_SIZE":"LARGE","FILE":"3301463","CLASSIFICATION_TYPE":"U","SITE":"AFETR","PERIAPSIS":"546.393","BSTAR":"-0.00006249600000","OBJECT_NAME":"STARLINK-1300","MEAN_MOTION":"15.06383696","ELEMENT_SET_NO":"999","MEAN_ELEMENT_THEORY":"SGP4","MEAN_ANOMALY":"272.9112","LAUNCH_DATE":"2020-03-18","EPOCH":"2022-02-15T17:01:55.493184","ARG_OF_PERICENTER":"87.2021","MEAN_MOTION_DDOT":"0.0000000000000","ECCENTRICITY":"0.00012570","DECAY_DATE":null,"PERIOD":"95.593","COUNTRY_CODE":"US","SEMIMAJOR_AXIS":"6925.399","INCLINATION":"53.0557"},{"RA_OF_ASC_NODE":"343.3264","TLE_LINE1":"1 45375U 20019R   22046.85710694 -.00001000  00000-0 -48241-4 0  9996","NORAD_CAT_ID":"45375","TLE_LINE2":"2 45375  53.0546 343.3264 0001710  47.4120 312.7013 15.06381169106230","RCS_SIZE":"LARGE","EPHEMERIS_TYPE":"0","MEAN_MOTION_DOT":"-0.00001000","REF_FRAME":"TEME","GP_ID":"196056330","CENTER_NAME":"EARTH","APOAPSIS":"548.456","TIME_SYSTEM":"UTC","OBJECT_TYPE":"PAYLOAD","REV_AT_EPOCH":"10623","OBJECT_ID":"2020-019R","ARG_OF_PERICENTER":"47.4120","EPOCH":"2022-02-15T20:34:14.039616","MEAN_MOTION_DDOT":"0.0000000000000","MEAN_ELEMENT_THEORY":"SGP4","MEAN_ANOMALY":"312.7013","LAUNCH_DATE":"2020-03-18","COUNTRY_CODE":"US","INCLINATION":"53.0546","SEMIMAJOR_AXIS":"6925.406","ECCENTRICITY":"0.00017100","DECAY_DATE":null,"PERIOD":"95.593","SITE":"AFETR","PERIAPSIS":"546.087","FILE":"3301463","CLASSIFICATION_TYPE":"U","ELEMENT_SET_NO":"999","OBJECT_NAME":"STARLINK-1302","BSTAR":"-0.00004824100000","MEAN_MOTION":"15.06381169"},{"PERIAPSIS":"545.921","SITE":"AFETR","CLASSIFICATION_TYPE":"U","FILE":"3301421","ELEMENT_SET_NO":"999","MEAN_MOTION":"15.06402076","OBJECT_NAME":"STARLINK-1304","BSTAR":"0.00035853000000","MEAN_MOTION_DDOT":"0.0000000000000","ARG_OF_PERICENTER":"68.2256","EPOCH":"2022-02-15T13:03:03.373056","LAUNCH_DATE":"2020-03-18","MEAN_ANOMALY":"291.8931","MEAN_ELEMENT_THEORY":"SGP4","COUNTRY_CODE":"US","INCLINATION":"53.0554","SEMIMAJOR_AXIS":"6925.342","ECCENTRICITY":"0.00018570","DECAY_DATE":null,"PERIOD":"95.592","MEAN_MOTION_DOT":"0.00005063","EPHEMERIS_TYPE":"0","REF_FRAME":"TEME","TIME_SYSTEM":"UTC","OBJECT_TYPE":"PAYLOAD","GP_ID":"196036470","CENTER_NAME":"EARTH","APOAPSIS":"548.493","OBJECT_ID":"2020-019S","REV_AT_EPOCH":"10618","TLE_LINE1":"1 45376U 20019S   22046.54378904  .00005063  00000-0  35853-3 0  9992","RA_OF_ASC_NODE":"344.7287","TLE_LINE2":"2 45376  53.0554 344.7287 0001857  68.2256 291.8931 15.06402076106184","NORAD_CAT_ID":"45376","RCS_SIZE":"LARGE"}];
